RADARSAT-2              
1 32382U 07061A   26186.58009354  .00000006  00000+0  19307-4 0  9998
2 32382  98.5778 193.2499 0001303  84.7171 275.4160 14.29981359968588
